{"fetched_at":"2026-03-29T16:36:15Z","count":15609,"tles":[{"name":"STARLINK-3172","line1":"1 51139U 22005AM  26087.72102529  .00000862  00000+0  72231-4 0  9993","line2":"2 51139  53.2160 213.6960 0001318  80.2931 279.8210 15.08839514231617","category":"Starlink"}]}